NESS                    
1 58020U 23155E   26068.76452457  .00019469  00000+0  74047-3 0  9996
2 58020  97.5941 152.6141 0006891 179.8776 180.2465 15.26794015133307
STARLINK-31189          
1 58787U 24012A   26068.31969432 -.00000278  00000+0 -59323-6 0  9999
2 58787  43.0004 166.9767 0000765 234.6094 125.4687 15.27572094121184
